TIANMU-1 08             
1 57400U 23101B   26066.00237819  .00000346  00000+0  14775-4 0  9993
2 57400  97.2717 118.7901 0006380 134.2174 225.9592 15.29204229146020
STARLINK-31914          
1 59902U 24100T   26068.16327008 -.00001507  00000+0 -45258-4 0  9993
2 59902  43.0032 128.6013 0001295 251.5976 108.4735 15.27567526100962
